SKYSAT-A                
1 39418U 13066C   26095.69490868  .00004816  00000+0  27836-3 0  9990
2 39418  97.3890 147.3945 0021139 201.1397 158.8962 15.12563064677524
SKYSAT-B                
1 40072U 14037D   26095.83333653  .00002412  00000+0  27048-3 0  9996
2 40072  98.3775  50.7149 0006314 141.6421 218.5244 14.87837532635203
SKYSAT-C1               
1 41601U 16040C   26095.36689778  .00012372  00000+0  36517-3 0  9998
2 41601  96.9644 131.0677 0000602 326.5790  33.5417 15.35104314546697
SKYSAT-C4               
1 41771U 16058B   26095.51913017  .00018723  00000+0  37982-3 0  9991
2 41771  96.9246 120.4257 0003020 124.5066 235.6470 15.46402302534239
SKYSAT-C5               
1 41772U 16058C   26095.69836887  .00009974  00000+0  30290-3 0  9993
2 41772  97.0553 139.5856 0002317 169.3401 190.7892 15.34258715532632
SKYSAT-C2               
1 41773U 16058D   26095.80273112  .00015457  00000+0  38290-3 0  9994
2 41773  97.0240 120.6838 0001949 351.1663   8.9549 15.40487567533904
SKYSAT-C3               
1 41774U 16058E   26095.69138837  .00026860  00000+0  48593-3 0  9993
2 41774  96.9117 129.4336 0002441 110.9766 249.1748 15.49643374534875
SKYSAT-C11              
1 42987U 17068A   26095.83816820  .00031742  00000+0  48691-3 0  9997
2 42987  97.4257 241.7690 0000537 165.1674 194.9596 15.54250971471992
SKYSAT-C10              
1 42988U 17068B   26095.82028321  .00012615  00000+0  39338-3 0  9994
2 42988  97.4396 232.0807 0001023 110.1182 250.0170 15.33373050471268
SKYSAT-C9               
1 42989U 17068C   26095.62543127  .00017309  00000+0  43761-3 0  9999
2 42989  97.4316 232.1539 0009266  45.3142 314.8857 15.39810989471585
SKYSAT-C8               
1 42990U 17068D   26095.63683428  .00014945  00000+0  43474-3 0  9995
2 42990  97.4410 231.4290 0001045  94.5672 265.5691 15.35535036471175
SKYSAT-C7               
1 42991U 17068E   26095.82326725  .00013883  00000+0  40445-3 0  9996
2 42991  97.4421 232.6019 0006149  18.6284 341.5183 15.35488932471269
SKYSAT-C6               
1 42992U 17068F   26095.33743785  .00013863  00000+0  43458-3 0  9997
2 42992  97.4455 232.3168 0003464  62.5831 297.5763 15.33178084471156
SKYSAT-C12              
1 43797U 18099AR  26095.81212816  .00019946  00000+0  40056-3 0  9994
2 43797  96.9335 122.0557 0005801  72.7479 287.4407 15.46672743410663
SKYSAT-C13              
1 43802U 18099AW  26095.59182504  .00133646  00000+0  62984-3 0  9994
2 43802  96.9313 143.3811 0005285 131.6837 228.4886 15.82713730411416
FLOCK 4Q-16             
1 58271U 23174R   26095.75498482  .00025779  00000+0  52356-3 0  9992
2 58271  97.3835 182.3603 0007102  74.4335 285.7698 15.46293987134376
FLOCK 4Q-11             
1 58273U 23174T   26095.81984528  .00023595  00000+0  47270-3 0  9995
2 58273  97.3872 182.9390 0006705  72.4782 287.7200 15.46712827134392
